{"type": "FeatureCollection", "features": [ {"type": "Feature", "properties": {"norad_id": 66563, "name": "STARLINK-35437", "group": "last-30-days", "lat": 10.181439416922956, "lon": -20.772616418685587, "alt_km": 354.0702139170771, "timestamp": "2025-12-04T09:47:36.303072+00:00", "meta": {"OBJECT_NAME": "STARLINK-35437", "OBJECT_ID": "2025-268G", "EPOCH": "2025-12-03T22:00:03.000096", "MEAN_MOTION": 15.73327786, "ECCENTRICITY": 0.00014787, "INCLINATION": 42.999, "RA_OF_ASC_NODE": 173.3096, "ARG_OF_PERICENTER": 270.9251, "MEAN_ANOMALY": 349.3517, "EPHEMERIS_TYPE": 0, "CLASSIFICATION_TYPE": "U", "NORAD_CAT_ID": 66563, "ELEMENT_SET_NO": 999, "REV_AT_EPOCH": 325, "BSTAR": -0.014995211, "MEAN_MOTION_DOT": -0.01863849, "MEAN_MOTION_DDOT": 0}, "tle": {"line1": "1 66563U 25268G   25337.91670139 -.01863849  00000+0 -14995-1 0  9994", "line2": "2 66563  42.9990 173.3096 0001478 270.9251 349.3517 15.73327786  3257"}}, "geometry": {"type": "Point", "coordinates": [-20.772616418685587, 10.181439416922956]}}, {"type": "Feature", "properties": {"norad_id": 66564, "name": "STARLINK-35358", "group": "last-30-days", "lat": 8.895070398196276, "lon": -19.33383663910438, "alt_km": 354.0619812911009, "timestamp": "2025-12-04T09:47:36.303083+00:00", "meta": {"OBJECT_NAME": "STARLINK-35358", "OBJECT_ID": "2025-268H", "EPOCH": "2025-12-03T22:00:03.000096", "MEAN_MOTION": 15.73336935, "ECCENTRICITY": 0.00014243, "INCLINATION": 42.9991, "RA_OF_ASC_NODE": 173.3051, "ARG_OF_PERICENTER": 265.4458, "MEAN_ANOMALY": 356.739, "EPHEMERIS_TYPE": 0, "CLASSIFICATION_TYPE": "U", "NORAD_CAT_ID": 66564, "ELEMENT_SET_NO": 999, "REV_AT_EPOCH": 320, "BSTAR": -0.01504336, "MEAN_MOTION_DOT": -0.01869637, "MEAN_MOTION_DDOT": 0}, "tle": {"line1": "1 66564U 25268H   25337.91670139 -.01869637  00000+0 -15043-1 0  9991", "line2": "2 66564  42.9991 173.3051 0001424 265.4458 356.7390 15.73336935  3201"}}, "geometry": {"type": "Point", "coordinates": [-19.33383663910438, 8.895070398196276]}}, {"type": "Feature", "properties": {"norad_id": 66565, "name": "STARLINK-35893", "group": "last-30-days", "lat": 7.605188430646959, "lon": -17.90807037844858, "alt_km": 354.37377335989186, "timestamp": "2025-12-04T09:47:36.303092+00:00", "meta": {"OBJECT_NAME": "STARLINK-35893", "OBJECT_ID": "2025-268J", "EPOCH": "2025-12-03T22:00:03.000096", "MEAN_MOTION": 15.73315615, "ECCENTRICITY": 0.0001597, "INCLINATION": 42.9991, "RA_OF_ASC_NODE": 173.2999, "ARG_OF_PERICENTER": 270.6981, "MEAN_ANOMALY": 353.4224, "EPHEMERIS_TYPE": 0, "CLASSIFICATION_TYPE": "U", "NORAD_CAT_ID": 66565, "ELEMENT_SET_NO": 999, "REV_AT_EPOCH": 325, "BSTAR": -0.014899846, "MEAN_MOTION_DOT": -0.01852804, "MEAN_MOTION_DDOT": 0}, "tle": {"line1": "1 66565U 25268J   25337.91670139 -.01852804  00000+0 -14900-1 0  9991", "line2": "2 66565  42.9991 173.2999 0001597 270.6981 353.4224 15.73315615  3259"}}, "geometry": {"type": "Point", "coordinates": [-17.90807037844858, 7.605188430646959]}}, {"type": "Feature", "properties": {"norad_id": 66566, "name": "STARLINK-35871", "group": "last-30-days", "lat": 6.309252971506317, "lon": -16.48904968432438, "alt_km": 354.4946182137119, "timestamp": "2025-12-04T09:47:36.303102+00:00", "meta": {"OBJECT_NAME": "STARLINK-35871", "OBJECT_ID": "2025-268K", "EPOCH": "2025-12-03T22:00:03.000096", "MEAN_MOTION": 15.73317848, "ECCENTRICITY": 0.00015955, "INCLINATION": 42.999, "RA_OF_ASC_NODE": 173.2951, "ARG_OF_PERICENTER": 269.9409, "MEAN_ANOMALY": 356.0951, "EPHEMERIS_TYPE": 0, "CLASSIFICATION_TYPE": "U", "NORAD_CAT_ID": 66566, "ELEMENT_SET_NO": 999, "REV_AT_EPOCH": 325, "BSTAR": -0.014919112, "MEAN_MOTION_DOT": -0.0185504, "MEAN_MOTION_DDOT": 0}, "tle": {"line1": "1 66566U 25268K   25337.91670139 -.01855040  00000+0 -14919-1 0  9997", "line2": "2 66566  42.9990 173.2951 0001595 269.9409 356.0951 15.73317848  3257"}}, "geometry": {"type": "Point", "coordinates": [-16.48904968432438, 6.309252971506317]}}, {"type": "Feature", "properties": {"norad_id": 66567, "name": "STARLINK-35825", "group": "last-30-days", "lat": 5.007272563603145, "lon": -15.074624259229525, "alt_km": 354.5102007013911, "timestamp": "2025-12-04T09:47:36.303113+00:00", "meta": {"OBJECT_NAME": "STARLINK-35825", "OBJECT_ID": "2025-268L", "EPOCH": "2025-12-03T22:00:03.000096", "MEAN_MOTION": 15.73318494, "ECCENTRICITY": 0.00014475, "INCLINATION": 42.999, "RA_OF_ASC_NODE": 173.2904, "ARG_OF_PERICENTER": 266.2271, "MEAN_ANOMALY": 1.725, "EPHEMERIS_TYPE": 0, "CLASSIFICATION_TYPE": "U", "NORAD_CAT_ID": 66567, "ELEMENT_SET_NO": 999, "REV_AT_EPOCH": 325, "BSTAR": -0.014905307, "MEAN_MOTION_DOT": -0.01853468, "MEAN_MOTION_DDOT": 0}, "tle": {"line1": "1 66567U 25268L   25337.91670139 -.01853468  00000+0 -14905-1 0  9995", "line2": "2 66567  42.9990 173.2904 0001447 266.2271   1.7250 15.73318494  3253"}}, "geometry": {"type": "Point", "coordinates": [-15.074624259229525, 5.007272563603145]}}, {"type": "Feature", "properties": {"norad_id": 66568, "name": "STARLINK-35803", "group": "last-30-days", "lat": 3.703299652965559, "lon": -13.66756672251326, "alt_km": 354.74327489571715, "timestamp": "2025-12-04T09:47:36.303123+00:00", "meta": {"OBJECT_NAME": "STARLINK-35803", "OBJECT_ID": "2025-268M", "EPOCH": "2025-12-03T22:00:03.000096", "MEAN_MOTION": 15.73321105, "ECCENTRICITY": 0.00012605, "INCLINATION": 42.999, "RA_OF_ASC_NODE": 173.2851, "ARG_OF_PERICENTER": 269.9027, "MEAN_ANOMALY": 359.9683, "EPHEMERIS_TYPE": 0, "CLASSIFICATION_TYPE": "U", "NORAD_CAT_ID": 66568, "ELEMENT_SET_NO": 999, "REV_AT_EPOCH": 325, "BSTAR": -0.014965302, "MEAN_MOTION_DOT": -0.01859968, "MEAN_MOTION_DDOT": 0}, "tle": {"line1": "1 66568U 25268M   25337.91670139 -.01859968  00000+0 -14965-1 0  9993", "line2": "2 66568  42.9990 173.2851 0001260 269.9027 359.9683 15.73321105  3258"}}, "geometry": {"type": "Point", "coordinates": [-13.66756672251326, 3.703299652965559]}}, {"type": "Feature", "properties": {"norad_id": 66569, "name": "STARLINK-35835", "group": "last-30-days", "lat": 2.40008219021971, "lon": -12.267189369721208, "alt_km": 354.7300407268831, "timestamp": "2025-12-04T09:47:36.303135+00:00", "meta": {"OBJECT_NAME": "STARLINK-35835", "OBJECT_ID": "2025-268N", "EPOCH": "2025-12-03T22:00:03.000096", "MEAN_MOTION": 15.73317564, "ECCENTRICITY": 0.00014687, "INCLINATION": 42.999, "RA_OF_ASC_NODE": 173.2805, "ARG_OF_PERICENTER": 263.6593, "MEAN_ANOMALY": 8.1318, "EPHEMERIS_TYPE": 0, "CLASSIFICATION_TYPE": "U", "NORAD_CAT_ID": 66569, "ELEMENT_SET_NO": 999, "REV_AT_EPOCH": 325, "BSTAR": -0.014937744, "MEAN_MOTION_DOT": -0.01856923, "MEAN_MOTION_DDOT": 0}, "tle": {"line1": "1 66569U 25268N   25337.91670139 -.01856923  00000+0 -14938-1 0  9992", "line2": "2 66569  42.9990 173.2805 0001468 263.6593   8.1318 15.73317564  3259"}}, "geometry": {"type": "Point", "coordinates": [-12.267189369721208, 2.40008219021971]}}, {"type": "Feature", "properties": {"norad_id": 66570, "name": "STARLINK-35834", "group": "last-30-days", "lat": 1.0953170227574884, "lon": -10.869563475230512, "alt_km": 355.03754956330704, "timestamp": "2025-12-04T09:47:36.303145+00:00", "meta": {"OBJECT_NAME": "STARLINK-35834", "OBJECT_ID": "2025-268P", "EPOCH": "2025-12-03T22:00:03.000096", "MEAN_MOTION": 15.73304529, "ECCENTRICITY": 0.00016556, "INCLINATION": 42.9991, "RA_OF_ASC_NODE": 173.2757, "ARG_OF_PERICENTER": 270.7408, "MEAN_ANOMALY": 2.971, "EPHEMERIS_TYPE": 0, "CLASSIFICATION_TYPE": "U", "NORAD_CAT_ID": 66570, "ELEMENT_SET_NO": 999, "REV_AT_EPOCH": 325, "BSTAR": -0.014782926, "MEAN_MOTION_DOT": -0.01839438, "MEAN_MOTION_DDOT": 0}, "tle": {"line1": "1 66570U 25268P   25337.91670139 -.01839438  00000+0 -14783-1 0  9994", "line2": "2 66570  42.9991 173.2757 0001655 270.7408   2.9710 15.73304529  3255"}}, "geometry": {"type": "Point", "coordinates": [-10.869563475230512, 1.0953170227574884]}}, {"type": "Feature", "properties": {"norad_id": 66571, "name": "STARLINK-35836", "group": "last-30-days", "lat": -0.21332763983340908, "lon": -9.469532179515795, "alt_km": 355.23942241908844, "timestamp": "2025-12-04T09:47:36.303163+00:00", "meta": {"OBJECT_NAME": "STARLINK-35836", "OBJECT_ID": "2025-268Q", "EPOCH": "2025-12-03T22:00:03.000096", "MEAN_MOTION": 15.73310468, "ECCENTRICITY": 0.00014762, "INCLINATION": 42.9991, "RA_OF_ASC_NODE": 173.2711, "ARG_OF_PERICENTER": 273.9342, "MEAN_ANOMALY": 1.6894, "EPHEMERIS_TYPE": 0, "CLASSIFICATION_TYPE": "U", "NORAD_CAT_ID": 66571, "ELEMENT_SET_NO": 999, "REV_AT_EPOCH": 325, "BSTAR": -0.014823399, "MEAN_MOTION_DOT": -0.01844078, "MEAN_MOTION_DDOT": 0}, "tle": {"line1": "1 66571U 25268Q   25337.91670139 -.01844078  00000+0 -14823-1 0  9996", "line2": "2 66571  42.9991 173.2711 0001476 273.9342   1.6894 15.73310468  3257"}}, "geometry": {"type": "Point", "coordinates": [-9.469532179515795, -0.21332763983340908]}}, {"type": "Feature", "properties": {"norad_id": 66572, "name": "STARLINK-35870", "group": "last-30-days", "lat": -1.5188430138175295, "lon": -8.071586323653506, "alt_km": 355.14915391507566, "timestamp": "2025-12-04T09:47:36.303175+00:00", "meta": {"OBJECT_NAME": "STARLINK-35870", "OBJECT_ID": "2025-268R", "EPOCH": "2025-12-03T22:00:03.000096", "MEAN_MOTION": 15.73314622, "ECCENTRICITY": 0.00016702, "INCLINATION": 42.9991, "RA_OF_ASC_NODE": 173.2674, "ARG_OF_PERICENTER": 266.3348, "MEAN_ANOMALY": 11.2013, "EPHEMERIS_TYPE": 0, "CLASSIFICATION_TYPE": "U", "NORAD_CAT_ID": 66572, "ELEMENT_SET_NO": 999, "REV_AT_EPOCH": 325, "BSTAR": -0.014838457, "MEAN_MOTION_DOT": -0.01846163, "MEAN_MOTION_DDOT": 0}, "tle": {"line1": "1 66572U 25268R   25337.91670139 -.01846163  00000+0 -14838-1 0  9990", "line2": "2 66572  42.9991 173.2674 0001670 266.3348  11.2013 15.73314622  3250"}}, "geometry": {"type": "Point", "coordinates": [-8.071586323653506, -1.5188430138175295]}}]}